[{"OBJECT_NAME":"CREW DRAGON 12","OBJECT_ID":"2026-031A","EPOCH":"2026-03-02T22:19:59.515680","MEAN_MOTION":15.48408287,"ECCENTRICITY":0.0008215,"INCLINATION":51.6319,"RA_OF_ASC_NODE":105.7724,"ARG_OF_PERICENTER":150.8374,"MEAN_ANOMALY":209.3074,"EPHEMERIS_TYPE":0,"CLASSIFICATION_TYPE":"U","NORAD_CAT_ID":67796,"ELEMENT_SET_NO":999,"REV_AT_EPOCH":55502,"BSTAR":0.00018075,"MEAN_MOTION_DOT":9.325e-5,"MEAN_MOTION_DDOT":0}]
